NORAD_CAT_ID,OBJECT_NAME,OBJECT_TYPE,EPOCH,MEAN_MOTION,ECCENTRICITY,INCLINATION,RA_OF_ASC_NODE,ARG_OF_PERICENTER,MEAN_ANOMALY,BSTAR,MEAN_MOTION_DOT,MEAN_MOTION_DDOT,TLE_LINE0,TLE_LINE1,TLE_LINE2,SEMIMAJOR_AXIS,PERIOD,APOGEE,PERIGEE,DECAYED
51789.0,STARLINK-3639,PAYLOAD,2024-07-18 04:30:22,15.08835342,0.0001488,53.2167,160.3941,101.8959,258.22,4.2789e-05,3.93e-06,0.0,0 STARLINK-3639,1 51789U 22017X   24200.18775961  .00000393  00000-0  42789-4 0  9993,2 51789  53.2167 160.3941 0001488 101.8959 258.2200 15.08835342133425,6917.895,95.438,540.789,538.73,0.0
51789.0,STARLINK-3639,PAYLOAD,2024-07-18 14:02:40,15.08849185,0.0001442,53.2171,158.608,97.9655,262.1501,0.00015691,2.211e-05,0.0,0 STARLINK-3639,1 51789U 22017X   24200.58518742  .00002211  00000-0  15691-3 0  9991,2 51789  53.2171 158.6080 0001442  97.9655 262.1501 15.08849185131833,6917.852,95.437,540.715,538.72,0.0
51789.0,STARLINK-3639,PAYLOAD,2024-07-19 04:21:10,15.08826751,0.0001528,53.2168,155.9291,83.1278,276.9887,2.3401e-05,8.4e-07,0.0,0 STARLINK-3639,1 51789U 22017X   24201.18136975  .00000084  00000-0  23401-4 0  9997,2 51789  53.2168 155.9291 0001528  83.1278 276.9887 15.08826751133573,6917.921,95.438,540.843,538.729,0.0
51789.0,STARLINK-3639,PAYLOAD,2024-07-19 05:56:33,15.08829172,0.0001548,53.217,155.6329,79.1946,280.922,5.5151e-05,5.9e-06,0.0,0 STARLINK-3639,1 51789U 22017X   24201.24760844  .00000590  00000-0  55151-4 0  9991,2 51789  53.2170 155.6329 0001548  79.1946 280.9220 15.08829172131938,6917.913,95.438,540.849,538.708,0.0
51789.0,STARLINK-3639,PAYLOAD,2024-07-20 04:11:56,15.08844245,0.0001391,53.2164,151.4702,86.6616,273.4535,3.5301e-05,2.74e-06,0.0,0 STARLINK-3639,1 51789U 22017X   24202.17496258  .00000274  00000-0  35301-4 0  9993,2 51789  53.2164 151.4702 0001391  86.6616 273.4535 15.08844245133726,6917.867,95.437,540.695,538.77,0.0
51789.0,STARLINK-3639,PAYLOAD,2024-07-20 13:44:14,15.08857988,0.0001489,53.2168,149.6871,90.4931,269.6232,0.00011857,1.6e-05,0.0,0 STARLINK-3639,1 51789U 22017X   24202.57238975  .00001600  00000-0  11857-3 0  9990,2 51789  53.2168 149.6871 0001489  90.4931 269.6232 15.08857988132130,6917.825,95.436,540.72,538.66,0.0
51789.0,STARLINK-3639,PAYLOAD,2024-07-21 04:02:43,15.08841141,0.000148,53.2168,147.0058,88.0723,272.0439,0.00012141,1.645e-05,0.0,0 STARLINK-3639,1 51789U 22017X   24203.16856251  .00001645  00000-0  12141-3 0  9995,2 51789  53.2168 147.0058 0001480  88.0723 272.0439 15.08841141133875,6917.877,95.437,540.766,538.718,0.0
51789.0,STARLINK-3639,PAYLOAD,2024-07-22 05:28:53,15.0884703,0.0001381,53.2162,142.2495,105.5943,254.5202,1.6017e-05,-3.3e-07,0.0,0 STARLINK-3639,1 51789U 22017X   24204.22840125 -.00000033  00000-0  16017-4 0  9994,2 51789  53.2162 142.2495 0001381 105.5943 254.5202 15.08847030134035,6917.859,95.437,540.679,538.769,0.0
51789.0,STARLINK-3639,PAYLOAD,2024-07-22 22:58:05,15.08914538,0.0001972,53.2163,138.978,76.5883,283.5329,-0.0010546,-0.00017068,0.0,0 STARLINK-3639,1 51789U 22017X   24204.95701377 -.00017068  00000-0 -10546-2 0  9995,2 51789  53.2163 138.9780 0001972  76.5883 283.5329 15.08914538132499,6917.653,95.433,540.882,538.153,0.0
51789.0,STARLINK-3639,PAYLOAD,2024-07-23 02:08:54,15.0884341,0.0001383,53.2166,138.3827,97.0495,263.0654,8.4511e-05,1.057e-05,0.0,0 STARLINK-3639,1 51789U 22017X   24205.08952166  .00001057  00000-0  84511-4 0  9998,2 51789  53.2166 138.3827 0001383  97.0495 263.0654 15.08843410132518,6917.87,95.437,540.692,538.778,0.0
51789.0,STARLINK-3639,PAYLOAD,2024-07-23 19:38:09,15.0883717,0.0001421,53.2167,135.1125,100.5563,259.5589,4.5977e-05,4.44e-06,0.0,0 STARLINK-3639,1 51789U 22017X   24205.81816745  .00000444  00000-0  45977-4 0  9993,2 51789  53.2167 135.1125 0001421 100.5563 259.5589 15.08837170134272,6917.889,95.438,540.737,538.771,0.0
51789.0,STARLINK-3639,PAYLOAD,2024-07-23 22:48:56,15.08833778,0.0001189,53.2167,134.5114,92.1978,267.915,7.4044e-06,-1.7e-06,0.0,0 STARLINK-3639,1 51789U 22017X   24205.95065060 -.00000170  00000-0  74044-5 0  9999,2 51789  53.2167 134.5114 0001189  92.1978 267.9150 15.08833778132646,6917.899,95.438,540.587,538.942,0.0
51789.0,STARLINK-3639,PAYLOAD,2024-07-24 05:10:29,15.08826288,0.0001221,53.2162,133.3252,83.6669,276.4462,-6.158e-05,-1.267e-05,0.0,0 STARLINK-3639,1 51789U 22017X   24206.21561849 -.00001267  00000-0 -61580-4 0  9994,2 51789  53.2162 133.3252 0001221  83.6669 276.4462 15.08826288134337,6917.922,95.438,540.632,538.943,0.0
51789.0,STARLINK-3639,PAYLOAD,2024-07-24 22:39:43,15.08836521,0.0001128,53.2163,130.0624,69.6667,290.4446,4.6597e-05,4.54e-06,0.0,0 STARLINK-3639,1 51789U 22017X   24206.94425210  .00000454  00000-0  46597-4 0  9991,2 51789  53.2163 130.0624 0001128  69.6667 290.4446 15.08836521132790,6917.891,95.438,540.536,538.976,0.0
51789.0,STARLINK-3639,PAYLOAD,2024-07-25 05:01:15,15.08841769,0.0001223,53.2156,128.8629,70.4601,289.6523,6.7137e-05,7.81e-06,0.0,0 STARLINK-3639,1 51789U 22017X   24207.20920735  .00000781  00000-0  67137-4 0  9999,2 51789  53.2156 128.8629 0001223  70.4601 289.6523 15.08841769134480,6917.875,95.437,540.586,538.894,0.0
51789.0,STARLINK-3639,PAYLOAD,2024-07-25 22:30:30,15.08833525,0.0001407,53.2164,125.5938,104.8727,255.2421,0.00013868,1.919e-05,0.0,0 STARLINK-3639,1 51789U 22017X   24207.93784934  .00001919  00000-0  13868-3 0  9993,2 51789  53.2164 125.5938 0001407 104.8727 255.2421 15.08833525132947,6917.9,95.438,540.739,538.792,0.0
51789.0,STARLINK-3639,PAYLOAD,2024-07-26 03:16:39,15.08831103,0.0001284,53.2168,124.7069,79.7841,280.3296,0.00014879,2.08e-05,0.0,0 STARLINK-3639,1 51789U 22017X   24208.13657324  .00002080  00000-0  14879-3 0  9991,2 51789  53.2168 124.7069 0001284  79.7841 280.3296 15.08831103134623,6917.908,95.438,540.661,538.884,0.0
51789.0,STARLINK-3639,PAYLOAD,2024-07-26 11:13:34,15.08846575,0.000112,53.216,123.2198,79.5068,280.605,0.00019186,2.767e-05,0.0,0 STARLINK-3639,1 51789U 22017X   24208.46776111  .00002767  00000-0  19186-3 0  9991,2 51789  53.2160 123.2198 0001120  79.5068 280.6050 15.08846575134675,6917.86,95.437,540.5,538.95,0.0
51789.0,STARLINK-3639,PAYLOAD,2024-07-28 01:22:51,15.08833338,0.0001377,53.2163,116.0882,107.0409,253.0734,-4.6897e-05,-1.034e-05,0.0,0 STARLINK-3639,1 51789U 22017X   24210.05753723 -.00001034  00000-0 -46897-4 0  9991,2 51789  53.2163 116.0882 0001377 107.0409 253.0734 15.08833338134911,6917.901,95.438,540.718,538.813,0.0
51789.0,STARLINK-3639,PAYLOAD,2024-07-28 22:02:52,15.08831243,0.0001469,53.2168,112.2198,87.7227,272.3933,-4.3742e-06,-3.58e-06,0.0,0 STARLINK-3639,1 51789U 22017X   24210.91866090 -.00000358  00000-0 -43742-5 0  9993,2 51789  53.2168 112.2198 0001469  87.7227 272.3933 15.08831243133397,6917.907,95.438,540.788,538.756,0.0
51789.0,STARLINK-3639,PAYLOAD,2024-07-29 10:45:56,15.08844044,0.000144,53.2161,109.8389,94.0261,266.0896,0.00017148,2.442e-05,0.0,0 STARLINK-3639,1 51789U 22017X   24211.44856572  .00002442  00000-0  17148-3 0  9999,2 51789  53.2161 109.8389 0001440  94.0261 266.0896 15.08844044135126,6917.868,95.437,540.729,538.737,0.0
51789.0,STARLINK-3639,PAYLOAD,2024-07-29 17:07:29,15.08834618,0.0001592,53.2161,108.6503,86.5975,273.5199,8.0486e-05,9.93e-06,0.0,0 STARLINK-3639,1 51789U 22017X   24211.71353552  .00000993  00000-0  80486-4 0  9994,2 51789  53.2161 108.6503 0001592  86.5975 273.5199 15.08834618135166,6917.897,95.438,540.863,538.661,0.0
51789.0,STARLINK-3639,PAYLOAD,2024-07-29 21:53:38,15.08838711,0.0001373,53.2168,107.757,100.5959,259.5188,0.00011885,1.604e-05,0.0,0 STARLINK-3639,1 51789U 22017X   24211.91225135  .00001604  00000-0  11885-3 0  9997,2 51789  53.2168 107.7570 0001373 100.5959 259.5188 15.08838711133543,6917.884,95.438,540.699,538.8,0.0
51789.0,STARLINK-3639,PAYLOAD,2024-07-30 10:36:42,15.0884842,0.0001587,53.2173,105.3779,92.6542,267.4632,0.00014293,1.988e-05,0.0,0 STARLINK-3639,1 51789U 22017X   24212.44216383  .00001988  00000-0  14293-3 0  9992,2 51789  53.2173 105.3779 0001587  92.6542 267.4632 15.08848420135272,6917.855,95.437,540.818,538.622,0.0
51789.0,STARLINK-3639,PAYLOAD,2024-07-30 21:44:25,15.08842364,0.0001448,53.2174,103.2997,111.6729,248.4418,9.6743e-05,1.252e-05,0.0,0 STARLINK-3639,1 51789U 22017X   24212.90584822  .00001252  00000-0  96743-4 0  9994,2 51789  53.2174 103.2997 0001448 111.6729 248.4418 15.08842364135347,6917.873,95.437,540.74,538.736,0.0
51789.0,STARLINK-3639,PAYLOAD,2024-07-30 23:19:48,15.08842951,0.0001719,53.2186,102.9989,106.0419,254.0763,1.2993e-05,-8.1e-07,0.0,0 STARLINK-3639,1 51789U 22017X   24212.97209115 -.00000081  00000-0  12993-4 0  9995,2 51789  53.2186 102.9989 0001719 106.0419 254.0763 15.08842951133708,6917.871,95.437,540.926,538.547,0.0
51789.0,STARLINK-3639,PAYLOAD,2024-07-31 21:35:13,15.08829804,0.0001368,53.2168,98.8369,93.3968,266.718,-1.4289e-05,-5.15e-06,0.0,0 STARLINK-3639,1 51789U 22017X   24213.89945927 -.00000515  00000-0 -14289-4 0  9998,2 51789  53.2168  98.8369 0001368  93.3968 266.7180 15.08829804135493,6917.912,95.438,540.723,538.83,0.0
51789.0,STARLINK-3639,PAYLOAD,2024-08-01 21:25:59,15.08839751,0.0001299,53.2165,94.3762,93.3845,266.7295,6.575e-05,7.59e-06,0.0,0 STARLINK-3639,1 51789U 22017X   24214.89305135  .00000759  00000-0  65750-4 0  9997,2 51789  53.2165  94.3762 0001299  93.3845 266.7295 15.08839751135641,6917.881,95.438,540.645,538.848,0.0
51789.0,STARLINK-3639,PAYLOAD,2024-08-01 23:01:22,15.08844663,0.0001134,53.2171,94.0772,96.4363,263.6758,5.9216e-05,6.55e-06,0.0,0 STARLINK-3639,1 51789U 22017X   24214.95928811  .00000655  00000-0  59216-4 0  9991,2 51789  53.2171  94.0772 0001134  96.4363 263.6758 15.08844663134000,6917.866,95.437,540.516,538.947,0.0
51789.0,STARLINK-3639,PAYLOAD,2024-08-02 08:33:40,15.08856962,8.9e-05,53.2154,92.2928,85.278,274.8314,0.00020807,3.027e-05,0.0,0 STARLINK-3639,1 51789U 22017X   24215.35671448  .00003027  00000-0  20807-3 0  9996,2 51789  53.2154  92.2928 0000890  85.2780 274.8314 15.08856962135717,6917.829,95.436,540.309,539.078,0.0
